<?xml version="1.0" encoding="UTF-8"?>
<kml xmlns="http://www.opengis.net/kml/2.2"><Document><Folder><name>Fields</name><Placemark><name>Field A</name><ExtendedData><Data name="crop"><value>paddy</value></Data><Data name="owner_id"><value>101</value></Data></ExtendedData><Polygon><outerBoundaryIs><LinearRing><coordinates>78.42905970747954,17.239096425850732 78.43094029252048,17.239096425850732 78.43094030166748,17.240903569673335 78.42905969833254,17.240903569673335 78.42905970747954,17.239096425850732</coordinates></LinearRing></outerBoundaryIs></Polygon></Placemark><Placemark><name>Field B</name><ExtendedData><Data name="crop"><value>cotton</value></Data><Data name="owner_id"><value>102</value></Data></ExtendedData><Polygon><outerBoundaryIs><LinearRing><coordinates>78.436,17.24 78.4395,17.2402 78.4398,17.2431 78.4362,17.2428 78.436,17.24</coordinates></LinearRing></outerBoundaryIs></Polygon></Placemark><Placemark><name>Digitising error</name><ExtendedData><Data name="crop"><value>unknown</value></Data><Data name="owner_id"><value>0</value></Data></ExtendedData><Polygon><outerBoundaryIs><LinearRing><coordinates>78.442,17.24 78.444,17.242 78.444,17.24 78.442,17.242 78.442,17.24</coordinates></LinearRing></outerBoundaryIs></Polygon></Placemark></Folder><Folder><name>Infrastructure</name><Placemark><name>Access road</name><ExtendedData><Data name="surface"><value>gravel</value></Data></ExtendedData><LineString><coordinates>78.43,17.238 78.435,17.239 78.441,17.2385</coordinates></LineString></Placemark><Placemark><name>Survey pole</name><ExtendedData><Data name="surface"><value>n/a</value></Data></ExtendedData><Point><coordinates>78.433,17.2415</coordinates></Point></Placemark></Folder><Folder><name>Reference</name><Placemark><name>Eluru check plot</name><ExtendedData><Data name="crop"><value>none</value></Data><Data name="owner_id"><value>0</value></Data></ExtendedData><Polygon><outerBoundaryIs><LinearRing><coordinates>80.9995311701274,16.709548190053138 81.0004688298726,16.709548190053138 81.00046883207867,16.710451808864153 80.99953116792133,16.710451808864153 80.9995311701274,16.709548190053138</coordinates></LinearRing></outerBoundaryIs></Polygon></Placemark></Folder></Document></kml>